NORAD_CAT_ID,OBJECT_NAME,OBJECT_TYPE,EPOCH,MEAN_MOTION,ECCENTRICITY,INCLINATION,RA_OF_ASC_NODE,ARG_OF_PERICENTER,MEAN_ANOMALY,BSTAR,MEAN_MOTION_DOT,MEAN_MOTION_DDOT,TLE_LINE0,TLE_LINE1,TLE_LINE2,SEMIMAJOR_AXIS,PERIOD,APOGEE,PERIGEE,DECAYED
49762.0,STARLINK-3195,PAYLOAD,2024-01-05 11:46:37,15.08835736,0.0001461,53.2183,104.4193,95.5932,264.5227,4.6243e-05,4.48e-06,0.0,0 STARLINK-3195,1 49762U 21115AQ  24005.49070861  .00000448  00000-0  46243-4 0  9993,2 49762  53.2183 104.4193 0001461  95.5932 264.5227 15.08835736115785,6917.893,95.438,540.769,538.748,0.0
49762.0,STARLINK-3195,PAYLOAD,2024-01-06 11:37:24,15.08840135,0.0001519,53.2189,99.9575,102.6554,257.4608,2.185e-05,6e-07,0.0,0 STARLINK-3195,1 49762U 21115AQ  24006.48430835  .00000060  00000-0  21850-4 0  9991,2 49762  53.2189  99.9575 0001519 102.6554 257.4608 15.08840135115937,6917.88,95.438,540.796,538.694,0.0
49762.0,STARLINK-3195,PAYLOAD,2024-01-07 11:28:11,15.08836845,0.0001478,53.2189,95.4969,102.4711,257.6446,1.185e-05,-9.9e-07,0.0,0 STARLINK-3195,1 49762U 21115AQ  24007.47791284 -.00000099  00000-0  11850-4 0  9991,2 49762  53.2189  95.4969 0001478 102.4711 257.6446 15.08836845117197,6917.89,95.438,540.777,538.733,0.0
49762.0,STARLINK-3195,PAYLOAD,2024-01-07 13:03:34,15.08839309,0.0001355,53.2181,95.1995,95.1349,264.9798,3.1703e-05,2.17e-06,0.0,0 STARLINK-3195,1 49762U 21115AQ  24007.54415111  .00000217  00000-0  31703-4 0  9991,2 49762  53.2181  95.1995 0001355  95.1349 264.9798 15.08839309116091,6917.883,95.438,540.685,538.81,0.0
49762.0,STARLINK-3195,PAYLOAD,2024-01-08 11:18:56,15.08939112,9.51e-05,53.2188,91.0393,93.9362,266.1739,-0.0012346,-0.00019936,0.0,0 STARLINK-3195,1 49762U 21115AQ  24008.47149086 -.00019936  00000-0 -12346-2 0  9999,2 49762  53.2188  91.0393 0000951  93.9362 266.1739 15.08939112117348,6917.577,95.431,540.1,538.785,0.0
49762.0,STARLINK-3195,PAYLOAD,2024-01-08 12:54:21,15.08832543,0.0001396,53.2183,90.7423,81.7275,278.3875,0.0002046,2.969e-05,0.0,0 STARLINK-3195,1 49762U 21115AQ  24008.53775213  .00002969  00000-0  20460-3 0  9996,2 49762  53.2183  90.7423 0001396  81.7275 278.3875 15.08832543116249,6917.903,95.438,540.734,538.802,0.0
49762.0,STARLINK-3195,PAYLOAD,2024-01-09 12:45:08,15.08846402,0.0001407,53.2173,86.2798,75.0703,285.0445,7.3127e-05,8.76e-06,0.0,0 STARLINK-3195,1 49762U 21115AQ  24009.53134727  .00000876  00000-0  73127-4 0  9990,2 49762  53.2173  86.2798 0001407  75.0703 285.0445 15.08846402117505,6917.861,95.437,540.699,538.752,0.0
49762.0,STARLINK-3195,PAYLOAD,2024-01-09 14:20:31,15.08850689,0.0001304,53.2172,85.9807,85.9118,274.2023,0.00011544,1.55e-05,0.0,0 STARLINK-3195,1 49762U 21115AQ  24009.59758203  .00001550  00000-0  11544-3 0  9991,2 49762  53.2172  85.9807 0001304  85.9118 274.2023 15.08850689116409,6917.848,95.437,540.615,538.811,0.0
49762.0,STARLINK-3195,PAYLOAD,2024-01-10 04:39:00,15.08836425,0.0001368,53.2176,83.3022,112.6695,247.4442,-2.1079e-05,-6.23e-06,0.0,0 STARLINK-3195,1 49762U 21115AQ  24010.19375445 -.00000623  00000-0 -21079-4 0  9999,2 49762  53.2176  83.3022 0001368 112.6695 247.4442 15.08836425117604,6917.891,95.438,540.703,538.81,0.0
49762.0,STARLINK-3195,PAYLOAD,2024-01-10 11:00:32,15.08838746,0.0001473,53.2174,82.1155,99.8562,260.2597,6.5666e-07,-2.78e-06,0.0,0 STARLINK-3195,1 49762U 21115AQ  24010.45871254 -.00000278  00000-0  65666-6 0  9994,2 49762  53.2174  82.1155 0001473  99.8562 260.2597 15.08838746116535,6917.884,95.438,540.768,538.73,0.0
49762.0,STARLINK-3195,PAYLOAD,2024-01-10 14:11:18,15.08845815,0.0001578,53.2183,81.5195,91.7822,268.3351,2.3542e-05,8.7e-07,0.0,0 STARLINK-3195,1 49762U 21115AQ  24010.59118838  .00000087  00000-0  23542-4 0  9993,2 49762  53.2183  81.5195 0001578  91.7822 268.3351 15.08845815117665,6917.863,95.437,540.819,538.636,0.0
49762.0,STARLINK-3195,PAYLOAD,2024-01-11 14:02:05,15.08851533,0.0001668,53.2184,77.0581,103.9973,256.1205,2.8937e-05,1.73e-06,0.0,0 STARLINK-3195,1 49762U 21115AQ  24011.58478283  .00000173  00000-0  28937-4 0  9995,2 49762  53.2184  77.0581 0001668 103.9973 256.1205 15.08851533116709,6917.845,95.437,540.864,538.556,0.0
49762.0,STARLINK-3195,PAYLOAD,2024-01-12 10:42:07,15.08835293,0.0001796,53.218,73.1941,104.1863,255.9329,2.1548e-05,5.5e-07,0.0,0 STARLINK-3195,1 49762U 21115AQ  24012.44591582  .00000055  00000-0  21548-4 0  9999,2 49762  53.2180  73.1941 0001796 104.1863 255.9329 15.08835293117941,6917.895,95.438,541.002,538.517,0.0
49762.0,STARLINK-3195,PAYLOAD,2024-01-13 10:32:53,15.08844433,0.0001665,53.2187,68.732,102.648,257.4698,2.327e-05,8.2e-07,0.0,0 STARLINK-3195,1 49762U 21115AQ  24013.43951263  .00000082  00000-0  23270-4 0  9999,2 49762  53.2187  68.7320 0001665 102.6480 257.4698 15.08844433118091,6917.867,95.437,540.884,538.58,0.0
49762.0,STARLINK-3195,PAYLOAD,2024-01-14 04:02:09,15.08826996,0.0001692,53.2189,65.4647,105.4741,254.6438,-3.9684e-07,-2.94e-06,0.0,0 STARLINK-3195,1 49762U 21115AQ  24014.16816914 -.00000294  00000-0 -39684-6 0  9998,2 49762  53.2189  65.4647 0001692 105.4741 254.6438 15.08826996118208,6917.92,95.438,540.956,538.615,0.0
49762.0,STARLINK-3195,PAYLOAD,2024-01-14 10:23:42,15.08823307,0.0001891,53.2187,64.2698,120.3602,239.7577,-8.0052e-05,-1.561e-05,0.0,0 STARLINK-3195,1 49762U 21115AQ  24014.43313505 -.00001561  00000-0 -80052-4 0  9997,2 49762  53.2187  64.2698 0001891 120.3602 239.7577 15.08823307117134,6917.931,95.439,541.105,538.488,0.0
49762.0,STARLINK-3195,PAYLOAD,2024-01-15 11:49:50,15.0886684,0.0001608,53.2185,59.5144,98.3775,261.74,0.00021608,3.155e-05,0.0,0 STARLINK-3195,1 49762U 21115AQ  24015.49294171  .00003155  00000-0  21608-3 0  9991,2 49762  53.2185  59.5144 0001608  98.3775 261.7400 15.08866840118406,6917.798,95.436,540.776,538.551,0.0
49762.0,STARLINK-3195,PAYLOAD,2024-01-16 02:08:20,15.08826828,0.0001463,53.2187,56.8399,103.441,256.6746,0.00011996,1.621e-05,0.0,0 STARLINK-3195,1 49762U 21115AQ  24016.08913109  .00001621  00000-0  11996-3 0  9991,2 49762  53.2187  56.8399 0001463 103.4410 256.6746 15.08826828118490,6917.921,95.438,540.798,538.774,0.0
49762.0,STARLINK-3195,PAYLOAD,2024-01-16 11:40:39,15.08832941,0.0001646,53.2188,55.0563,97.7538,262.3641,0.00015661,2.205e-05,0.0,0 STARLINK-3195,1 49762U 21115AQ  24016.48656977  .00002205  00000-0  15661-3 0  9994,2 49762  53.2188  55.0563 0001646  97.7538 262.3641 15.08832941117449,6917.902,95.438,540.906,538.628,0.0
49762.0,STARLINK-3195,PAYLOAD,2024-01-17 01:59:07,15.08853682,0.0001767,53.219,52.3802,110.2036,249.9146,-0.00012531,-2.283e-05,0.0,0 STARLINK-3195,1 49762U 21115AQ  24017.08272433 -.00002283  00000-0 -12531-3 0  9993,2 49762  53.2190  52.3802 0001767 110.2036 249.9146 15.08853682118645,6917.839,95.437,540.926,538.481,0.0
49762.0,STARLINK-3195,PAYLOAD,2024-01-17 09:56:02,15.08855785,0.0001766,53.2188,50.8933,93.2659,266.8535,-8.6948e-05,-1.672e-05,0.0,0 STARLINK-3195,1 49762U 21115AQ  24017.41391946 -.00001672  00000-0 -86948-4 0  9996,2 49762  53.2188  50.8933 0001766  93.2659 266.8535 15.08855785117588,6917.832,95.437,540.919,538.475,0.0
49762.0,STARLINK-3195,PAYLOAD,2024-01-18 11:22:12,15.08845691,0.0001777,53.2179,46.1334,107.451,252.6677,0.00011544,1.55e-05,0.0,0 STARLINK-3195,1 49762U 21115AQ  24018.47375990  .00001550  00000-0  11544-3 0  9996,2 49762  53.2179  46.1334 0001777 107.4510 252.6677 15.08845691118853,6917.863,95.437,540.957,538.499,0.0
49762.0,STARLINK-3195,PAYLOAD,2024-01-19 01:40:41,15.08844971,0.0002293,53.2208,43.4529,126.265,233.8554,-2.9684e-05,-7.61e-06,0.0,0 STARLINK-3195,1 49762U 21115AQ  24019.06992436 -.00000761  00000-0 -29684-4 0  9992,2 49762  53.2208  43.4529 0002293 126.2650 233.8554 15.08844971118945,6917.865,95.437,541.316,538.144,0.0
49762.0,STARLINK-3195,PAYLOAD,2024-01-19 08:02:13,15.08844629,0.0002034,53.2196,42.2714,91.9345,268.188,7.8981e-05,9.69e-06,0.0,0 STARLINK-3195,1 49762U 21115AQ  24019.33488336  .00000969  00000-0  78981-4 0  9993,2 49762  53.2196  42.2714 0002034  91.9345 268.1880 15.08844629117870,6917.866,95.437,541.138,538.324,0.0
49762.0,STARLINK-3195,PAYLOAD,2024-01-20 07:53:01,15.088394,0.000162,53.218,37.8005,106.4185,253.6985,5.865e-05,6.45e-06,0.0,0 STARLINK-3195,1 49762U 21115AQ  24020.32848505  .00000645  00000-0  58650-4 0  9994,2 49762  53.2180  37.8005 0001620 106.4185 253.6985 15.08839400119137,6917.882,95.438,540.868,538.627,0.0
49762.0,STARLINK-3195,PAYLOAD,2024-01-21 06:08:25,15.08841609,0.0001583,53.218,33.6445,92.4118,267.7056,3.4288e-05,2.58e-06,0.0,0 STARLINK-3195,1 49762U 21115AQ  24021.25584788  .00000258  00000-0  34288-4 0  9998,2 49762  53.2180  33.6445 0001583  92.4118 267.7056 15.08841609118168,6917.875,95.437,540.836,538.645,0.0
49762.0,STARLINK-3195,PAYLOAD,2024-01-21 07:43:48,15.08844512,0.0001629,53.2179,33.3459,101.5599,258.5576,5.4537e-05,5.8e-06,0.0,0 STARLINK-3195,1 49762U 21115AQ  24021.32208495  .00000580  00000-0  54537-4 0  9991,2 49762  53.2179  33.3459 0001629 101.5599 258.5576 15.08844512118176,6917.867,95.437,540.859,538.605,0.0
49762.0,STARLINK-3195,PAYLOAD,2024-01-22 04:23:50,15.08780471,0.0002092,53.2201,29.4847,112.8867,247.2346,0.00088412,0.00013788,0.0,0 STARLINK-3195,1 49762U 21115AQ  24022.18322357  .00013788  00000-0  88412-3 0  9992,2 49762  53.2201  29.4847 0002092 112.8867 247.2346 15.08780471119418,6918.062,95.441,541.375,538.48,0.0
49762.0,STARLINK-3195,PAYLOAD,2024-01-22 05:59:12,15.08828126,0.0001851,53.2199,29.187,114.4799,245.6386,0.00025328,3.744e-05,0.0,0 STARLINK-3195,1 49762U 21115AQ  24022.24945168  .00003744  00000-0  25328-3 0  9998,2 49762  53.2199  29.1870 0001851 114.4799 245.6386 15.08828126118315,6917.917,95.438,541.062,538.501,0.0
49762.0,STARLINK-3195,PAYLOAD,2024-01-22 10:45:21,15.0884548,0.0001698,53.2196,28.2921,104.6183,255.4998,0.00015284,2.146e-05,0.0,0 STARLINK-3195,1 49762U 21115AQ  24022.44816340  .00002146  00000-0  15284-3 0  9994,2 49762  53.2196  28.2921 0001698 104.6183 255.4998 15.08845480119452,6917.864,95.437,540.903,538.554,0.0
